ONEWEB-0647             
1 56079U 23043AK  26085.45081801  .00000127  00000+0  30316-3 0  9992
2 56079  87.8926 275.7442 0001713  97.7882 262.3443 13.15549228145546
ONEWEB-0651             
1 56080U 23043AL  26085.52211927  .00000224  00000+0  55996-3 0  9995
2 56080  87.8924 275.7248 0001430  96.7439 263.3854 13.15549469146751
ONEWEB-0718             
1 56081U 23043AM  26085.28919103  .00000140  00000+0  33681-3 0  9994
2 56081  87.8924 275.7518 0001792  75.8928 284.2401 13.15549309145532
ONEWEB-0561             
1 56710U 23068A   26085.54712190 -.00000029  00000+0 -10403-3 0  9991
2 56710  87.9149 290.9443 0001625 103.8085 256.3229 13.20770620138592
ONEWEB-0668             
1 56711U 23068B   26085.44023795  .00000131  00000+0  31031-3 0  9999
2 56711  87.9040 245.2157 0001433  81.4067 278.7226 13.16593124140894
ONEWEB-0676             
1 56712U 23068C   26085.44815079  .00000089  00000+0  19800-3 0  9996
2 56712  87.9028 245.2246 0001531 109.6001 250.5296 13.16595873140810
ONEWEB-0677             
1 56713U 23068D   26085.30878117  .00000003  00000+0 -24264-4 0  9992
2 56713  87.9149 290.9843 0001493  88.8359 271.2946 13.20774747138864
ONEWEB-0678             
1 56714U 23068E   26085.48567699 -.00000051  00000+0 -16967-3 0  9996
2 56714  87.8934 275.6965 0001935  98.3714 261.7636 13.15548937138418
ONEWEB-0679             
1 56715U 23068F   26085.40699367  .00000038  00000+0  64748-4 0  9991
2 56715  87.9038 245.2204 0001107  95.4834 264.6424 13.16594503140833
ONEWEB-0680             
1 56716U 23068G   26085.43619967  .00000066  00000+0  12875-3 0  9997
2 56716  87.9180 260.4573 0001350  79.2708 280.8578 13.21828230140169
ONEWEB-0681             
1 56717U 23068H   26085.41563667  .00000074  00000+0  14712-3 0  9992
2 56717  87.9167 260.4680 0001493 131.7543 228.3719 13.21827284140154
ONEWEB-0682             
1 56718U 23068J   26085.43343182  .00000135  00000+0  32497-3 0  9991
2 56718  87.8923 275.7111 0001331  77.4691 282.6588 13.15548383138576
ONEWEB-0683             
1 56719U 23068K   26085.45715657  .00000076  00000+0  16733-3 0  9993
2 56719  87.8939 275.7018 0001591  83.8000 276.3311 13.15549178138547
ONEWEB-0684             
1 56720U 23068L   26085.46508285 -.00000017  00000+0 -79766-4 0  9996
2 56720  87.8940 275.6914 0003088  95.4078 264.7404 13.15548902138371
ONEWEB-0686             
1 56721U 23068M   26085.44339522  .00000129  00000+0  30457-3 0  9996
2 56721  87.9019 245.2486 0001873  88.1139 272.0206 13.16596005140827
ONEWEB-0694             
1 56722U 23068N   26085.37374718  .00000053  00000+0  10543-3 0  9995
2 56722  87.9041 245.2106 0001464  83.8472 276.2826 13.16595426140875
ONEWEB-0696             
1 56723U 23068P   26085.27016234 -.00000184  00000+0 -52287-3 0  9999
2 56723  87.8924 275.7756 0002140  98.9262 261.2111 13.15547893138467
