[{"OBJECT_NAME":"ONEWEB-0647","OBJECT_ID":"2023-043AK","EPOCH":"2026-03-26T10:49:10.676064","MEAN_MOTION":13.15549228,"ECCENTRICITY":0.0001713,"INCLINATION":87.8926,"RA_OF_ASC_NODE":275.7442,"ARG_OF_PERICENTER":97.7882,"MEAN_ANOMALY":262.3443,"EPHEMERIS_TYPE":0,"CLASSIFICATION_TYPE":"U","NORAD_CAT_ID":56079,"ELEMENT_SET_NO":999,"REV_AT_EPOCH":14554,"BSTAR":0.00030316,"MEAN_MOTION_DOT":1.27e-6,"MEAN_MOTION_DDOT":0},{"OBJECT_NAME":"ONEWEB-0651","OBJECT_ID":"2023-043AL","EPOCH":"2026-03-26T12:31:51.104928","MEAN_MOTION":13.15549469,"ECCENTRICITY":0.000143,"INCLINATION":87.8924,"RA_OF_ASC_NODE":275.7248,"ARG_OF_PERICENTER":96.7439,"MEAN_ANOMALY":263.3854,"EPHEMERIS_TYPE":0,"CLASSIFICATION_TYPE":"U","NORAD_CAT_ID":56080,"ELEMENT_SET_NO":999,"REV_AT_EPOCH":14675,"BSTAR":0.00055996,"MEAN_MOTION_DOT":2.24e-6,"MEAN_MOTION_DDOT":0},{"OBJECT_NAME":"ONEWEB-0718","OBJECT_ID":"2023-043AM","EPOCH":"2026-03-26T06:56:26.104992","MEAN_MOTION":13.15549309,"ECCENTRICITY":0.0001792,"INCLINATION":87.8924,"RA_OF_ASC_NODE":275.7518,"ARG_OF_PERICENTER":75.8928,"MEAN_ANOMALY":284.2401,"EPHEMERIS_TYPE":0,"CLASSIFICATION_TYPE":"U","NORAD_CAT_ID":56081,"ELEMENT_SET_NO":999,"REV_AT_EPOCH":14553,"BSTAR":0.00033681,"MEAN_MOTION_DOT":1.4e-6,"MEAN_MOTION_DDOT":0},{"OBJECT_NAME":"ONEWEB-0561","OBJECT_ID":"2023-068A","EPOCH":"2026-03-26T13:07:51.332160","MEAN_MOTION":13.2077062,"ECCENTRICITY":0.0001625,"INCLINATION":87.9149,"RA_OF_ASC_NODE":290.9443,"ARG_OF_PERICENTER":103.8085,"MEAN_ANOMALY":256.3229,"EPHEMERIS_TYPE":0,"CLASSIFICATION_TYPE":"U","NORAD_CAT_ID":56710,"ELEMENT_SET_NO":999,"REV_AT_EPOCH":13859,"BSTAR":-0.00010403,"MEAN_MOTION_DOT":-2.9e-7,"MEAN_MOTION_DDOT":0},{"OBJECT_NAME":"ONEWEB-0668","OBJECT_ID":"2023-068B","EPOCH":"2026-03-26T10:33:56.558880","MEAN_MOTION":13.16593124,"ECCENTRICITY":0.0001433,"INCLINATION":87.904,"RA_OF_ASC_NODE":245.2157,"ARG_OF_PERICENTER":81.4067,"MEAN_ANOMALY":278.7226,"EPHEMERIS_TYPE":0,"CLASSIFICATION_TYPE":"U","NORAD_CAT_ID":56711,"ELEMENT_SET_NO":999,"REV_AT_EPOCH":14089,"BSTAR":0.00031031,"MEAN_MOTION_DOT":1.31e-6,"MEAN_MOTION_DDOT":0},{"OBJECT_NAME":"ONEWEB-0676","OBJECT_ID":"2023-068C","EPOCH":"2026-03-26T10:45:20.228256","MEAN_MOTION":13.16595873,"ECCENTRICITY":0.0001531,"INCLINATION":87.9028,"RA_OF_ASC_NODE":245.2246,"ARG_OF_PERICENTER":109.6001,"MEAN_ANOMALY":250.5296,"EPHEMERIS_TYPE":0,"CLASSIFICATION_TYPE":"U","NORAD_CAT_ID":56712,"ELEMENT_SET_NO":999,"REV_AT_EPOCH":14081,"BSTAR":0.000198,"MEAN_MOTION_DOT":8.9e-7,"MEAN_MOTION_DDOT":0},{"OBJECT_NAME":"ONEWEB-0677","OBJECT_ID":"2023-068D","EPOCH":"2026-03-26T07:24:38.693088","MEAN_MOTION":13.20774747,"ECCENTRICITY":0.0001493,"INCLINATION":87.9149,"RA_OF_ASC_NODE":290.9843,"ARG_OF_PERICENTER":88.8359,"MEAN_ANOMALY":271.2946,"EPHEMERIS_TYPE":0,"CLASSIFICATION_TYPE":"U","NORAD_CAT_ID":56713,"ELEMENT_SET_NO":999,"REV_AT_EPOCH":13886,"BSTAR":-2.4264e-5,"MEAN_MOTION_DOT":3.0e-8,"MEAN_MOTION_DDOT":0},{"OBJECT_NAME":"ONEWEB-0678","OBJECT_ID":"2023-068E","EPOCH":"2026-03-26T11:39:22.491936","MEAN_MOTION":13.15548937,"ECCENTRICITY":0.0001935,"INCLINATION":87.8934,"RA_OF_ASC_NODE":275.6965,"ARG_OF_PERICENTER":98.3714,"MEAN_ANOMALY":261.7636,"EPHEMERIS_TYPE":0,"CLASSIFICATION_TYPE":"U","NORAD_CAT_ID":56714,"ELEMENT_SET_NO":999,"REV_AT_EPOCH":13841,"BSTAR":-0.00016967,"MEAN_MOTION_DOT":-5.1e-7,"MEAN_MOTION_DDOT":0},{"OBJECT_NAME":"ONEWEB-0679","OBJECT_ID":"2023-068F","EPOCH":"2026-03-26T09:46:04.253088","MEAN_MOTION":13.16594503,"ECCENTRICITY":0.0001107,"INCLINATION":87.9038,"RA_OF_ASC_NODE":245.2204,"ARG_OF_PERICENTER":95.4834,"MEAN_ANOMALY":264.6424,"EPHEMERIS_TYPE":0,"CLASSIFICATION_TYPE":"U","NORAD_CAT_ID":56715,"ELEMENT_SET_NO":999,"REV_AT_EPOCH":14083,"BSTAR":6.4748e-5,"MEAN_MOTION_DOT":3.8e-7,"MEAN_MOTION_DDOT":0},{"OBJECT_NAME":"ONEWEB-0680","OBJECT_ID":"2023-068G","EPOCH":"2026-03-26T10:28:07.651488","MEAN_MOTION":13.2182823,"ECCENTRICITY":0.000135,"INCLINATION":87.918,"RA_OF_ASC_NODE":260.4573,"ARG_OF_PERICENTER":79.2708,"MEAN_ANOMALY":280.8578,"EPHEMERIS_TYPE":0,"CLASSIFICATION_TYPE":"U","NORAD_CAT_ID":56716,"ELEMENT_SET_NO":999,"REV_AT_EPOCH":14016,"BSTAR":0.00012875,"MEAN_MOTION_DOT":6.6e-7,"MEAN_MOTION_DDOT":0},{"OBJECT_NAME":"ONEWEB-0681","OBJECT_ID":"2023-068H","EPOCH":"2026-03-26T09:58:31.008288","MEAN_MOTION":13.21827284,"ECCENTRICITY":0.0001493,"INCLINATION":87.9167,"RA_OF_ASC_NODE":260.468,"ARG_OF_PERICENTER":131.7543,"MEAN_ANOMALY":228.3719,"EPHEMERIS_TYPE":0,"CLASSIFICATION_TYPE":"U","NORAD_CAT_ID":56717,"ELEMENT_SET_NO":999,"REV_AT_EPOCH":14015,"BSTAR":0.00014712,"MEAN_MOTION_DOT":7.4e-7,"MEAN_MOTION_DDOT":0},{"OBJECT_NAME":"ONEWEB-0682","OBJECT_ID":"2023-068J","EPOCH":"2026-03-26T10:24:08.509248","MEAN_MOTION":13.15548383,"ECCENTRICITY":0.0001331,"INCLINATION":87.8923,"RA_OF_ASC_NODE":275.7111,"ARG_OF_PERICENTER":77.4691,"MEAN_ANOMALY":282.6588,"EPHEMERIS_TYPE":0,"CLASSIFICATION_TYPE":"U","NORAD_CAT_ID":56718,"ELEMENT_SET_NO":999,"REV_AT_EPOCH":13857,"BSTAR":0.00032497,"MEAN_MOTION_DOT":1.35e-6,"MEAN_MOTION_DDOT":0},{"OBJECT_NAME":"ONEWEB-0683","OBJECT_ID":"2023-068K","EPOCH":"2026-03-26T10:58:18.327648","MEAN_MOTION":13.15549178,"ECCENTRICITY":0.0001591,"INCLINATION":87.8939,"RA_OF_ASC_NODE":275.7018,"ARG_OF_PERICENTER":83.8,"MEAN_ANOMALY":276.3311,"EPHEMERIS_TYPE":0,"CLASSIFICATION_TYPE":"U","NORAD_CAT_ID":56719,"ELEMENT_SET_NO":999,"REV_AT_EPOCH":13854,"BSTAR":0.00016733,"MEAN_MOTION_DOT":7.6e-7,"MEAN_MOTION_DDOT":0},{"OBJECT_NAME":"ONEWEB-0684","OBJECT_ID":"2023-068L","EPOCH":"2026-03-26T11:09:43.158240","MEAN_MOTION":13.15548902,"ECCENTRICITY":0.0003088,"INCLINATION":87.894,"RA_OF_ASC_NODE":275.6914,"ARG_OF_PERICENTER":95.4078,"MEAN_ANOMALY":264.7404,"EPHEMERIS_TYPE":0,"CLASSIFICATION_TYPE":"U","NORAD_CAT_ID":56720,"ELEMENT_SET_NO":999,"REV_AT_EPOCH":13837,"BSTAR":-7.9766e-5,"MEAN_MOTION_DOT":-1.7e-7,"MEAN_MOTION_DDOT":0},{"OBJECT_NAME":"ONEWEB-0686","OBJECT_ID":"2023-068M","EPOCH":"2026-03-26T10:38:29.347008","MEAN_MOTION":13.16596005,"ECCENTRICITY":0.0001873,"INCLINATION":87.9019,"RA_OF_ASC_NODE":245.2486,"ARG_OF_PERICENTER":88.1139,"MEAN_ANOMALY":272.0206,"EPHEMERIS_TYPE":0,"CLASSIFICATION_TYPE":"U","NORAD_CAT_ID":56721,"ELEMENT_SET_NO":999,"REV_AT_EPOCH":14082,"BSTAR":0.00030457,"MEAN_MOTION_DOT":1.29e-6,"MEAN_MOTION_DDOT":0},{"OBJECT_NAME":"ONEWEB-0694","OBJECT_ID":"2023-068N","EPOCH":"2026-03-26T08:58:11.756352","MEAN_MOTION":13.16595426,"ECCENTRICITY":0.0001464,"INCLINATION":87.9041,"RA_OF_ASC_NODE":245.2106,"ARG_OF_PERICENTER":83.8472,"MEAN_ANOMALY":276.2826,"EPHEMERIS_TYPE":0,"CLASSIFICATION_TYPE":"U","NORAD_CAT_ID":56722,"ELEMENT_SET_NO":999,"REV_AT_EPOCH":14087,"BSTAR":0.00010543,"MEAN_MOTION_DOT":5.3e-7,"MEAN_MOTION_DDOT":0},{"OBJECT_NAME":"ONEWEB-0696","OBJECT_ID":"2023-068P","EPOCH":"2026-03-26T06:29:02.026176","MEAN_MOTION":13.15547893,"ECCENTRICITY":0.000214,"INCLINATION":87.8924,"RA_OF_ASC_NODE":275.7756,"ARG_OF_PERICENTER":98.9262,"MEAN_ANOMALY":261.2111,"EPHEMERIS_TYPE":0,"CLASSIFICATION_TYPE":"U","NORAD_CAT_ID":56723,"ELEMENT_SET_NO":999,"REV_AT_EPOCH":13846,"BSTAR":-0.00052287,"MEAN_MOTION_DOT":-1.84e-6,"MEAN_MOTION_DDOT":0}]
